STARLINK-35991          
1 66861U 25281P   26068.13212077  .00034257  00000+0  12485-2 0  9992
2 66861  43.0010 346.3275 0001081 261.1147  98.9583 15.27583694 16109
2025-313BD              
1 67299U 25313BD  26068.62968741  .00081010  00000+0  27634-2 0  9995
2 67299  97.3970 145.2850 0007287 333.4514  26.6352 15.30002360 10838
